COMMENT,ORIGINATOR,NORAD_CAT_ID,OBJECT_NAME,OBJECT_TYPE,CLASSIFICATION_TYPE,INTLDES,EPOCH,EPOCH_MICROSECONDS,MEAN_MOTION,ECCENTRICITY,INCLINATION,RA_OF_ASC_NODE,ARG_OF_PERICENTER,MEAN_ANOMALY,EPHEMERIS_TYPE,ELEMENT_SET_NO,REV_AT_EPOCH,BSTAR,MEAN_MOTION_DOT,MEAN_MOTION_DDOT,FILE,TLE_LINE0,TLE_LINE1,TLE_LINE2,OBJECT_ID,OBJECT_NUMBER,SEMIMAJOR_AXIS,PERIOD,APOGEE,PERIGEE,DECAYED
"GENERATED VIA SPACETRACK.ORG API","18 SPCS","56778","STARLINK-6304","PAYLOAD","U","23078M","2023-10-30 22:00:00","999936","15.69904745","0.0003182","70","344.1407","272.8274","147.1763","0","999","572","0.00027981","0.00033539","0","4061878","0 STARLINK-6304","1 56778U 23078M   23303.91667824  .00033539  00000-0  27981-3 0  9990","2 56778  70.0000 344.1407 0003182 272.8274 147.1763 15.69904745  5724","2023-078M","56778","6737.307","91.725","361.315","357.028","0"
"GENERATED VIA SPACETRACK.ORG API","18 SPCS","56782","STARLINK-6352","PAYLOAD","U","23078R","2023-10-30 22:00:00","999936","15.69935844","0.00032","70","344.1402","254.7062","165.8766","0","999","599","-0.00010814","-0.00013201","0","4061878","0 STARLINK-6352","1 56782U 23078R   23303.91667824 -.00013201  00000-0 -10814-3 0  9998","2 56782  70.0000 344.1402 0003200 254.7062 165.8766 15.69935844  5992","2023-078R","56782","6737.218","91.723","361.238","356.927","0"
"GENERATED VIA SPACETRACK.ORG API","18 SPCS","56773","STARLINK-6296","PAYLOAD","U","23078G","2023-10-30 22:00:00","999936","15.69931216","0.0003578","70","344.1424","256.6833","162.1079","0","999","588","0.0000071164","0.00000643","0","4061878","0 STARLINK-6296","1 56773U 23078G   23303.91667824  .00000643  00000-0  71164-5 0  9999","2 56773  70.0000 344.1424 0003578 256.6833 162.1079 15.69931216  5885","2023-078G","56773","6737.231","91.724","361.506","356.685","0"
"GENERATED VIA SPACETRACK.ORG API","18 SPCS","56775","STARLINK-6292","PAYLOAD","U","23078J","2023-10-30 22:00:00","999936","15.6990637","0.0003158","70","344.1387","269.6439","152.1476","0","999","599","0.00021525","0.00025729","0","4061878","0 STARLINK-6292","1 56775U 23078J   23303.91667824  .00025729  00000-0  21525-3 0  9997","2 56775  70.0000 344.1387 0003158 269.6439 152.1476 15.69906370  5990","2023-078J","56775","6737.302","91.725","361.295","357.039","0"
"GENERATED VIA SPACETRACK.ORG API","18 SPCS","56783","STARLINK-6357","PAYLOAD","U","23078S","2023-10-30 22:00:00","999936","15.69873925","0.0003266","70","344.1378","264.5325","157.8694","0","999","588","0.00064195","0.0007753","0","4061878","0 STARLINK-6357","1 56783U 23078S   23303.91667824  .00077530  00000-0  64195-3 0  9993","2 56783  70.0000 344.1378 0003266 264.5325 157.8694 15.69873925  5888","2023-078S","56783","6737.395","91.727","361.460","357.059","0"
"GENERATED VIA SPACETRACK.ORG API","18 SPCS","55673","STARLINK-5463","PAYLOAD","U","23021AX","2023-10-30 22:22:34","553568","14.98327722","0.0002802","70","174.6407","268.5875","91.4963","0","999","4035","-0.000032121","-0.00000476","0","4061878","0 STARLINK-5463","1 55673U 23021AX  23303.93234437 -.00000476  00000-0 -32121-4 0  9992","2 55673  70.0000 174.6407 0002802 268.5875  91.4963 14.98327722 40356","2023-021AX","55673","6950.200","96.107","574.012","570.117","0"
"GENERATED VIA SPACETRACK.ORG API","18 SPCS","55670","STARLINK-5423","PAYLOAD","U","23021AU","2023-10-30 22:28:35","864544","14.98313484","0.0002773","70","174.6561","269.7098","90.3743","0","999","4035","-0.00017197","-0.00002143","0","4061878","0 STARLINK-5423","1 55670U 23021AU  23303.93652621 -.00002143  00000-0 -17197-3 0  9996","2 55670  70.0000 174.6561 0002773 269.7098  90.3743 14.98313484 40355","2023-021AU","55670","6950.244","96.108","574.036","570.182","0"
"GENERATED VIA SPACETRACK.ORG API","18 SPCS","49142","STARLINK-3042","PAYLOAD","U","21082N","2023-10-31 04:45:36","894816","14.98341453","0.0002088","70","264.057","242.968","117.1266","0","999","11807","-0.00025269","-0.00003107","0","4062307","0 STARLINK-3042","1 49142U 21082N   23304.19834369 -.00003107  00000-0 -25269-3 0  9998","2 49142  70.0000 264.0570 0002088 242.9680 117.1266 14.98341453118075","2021-082N","49142","6950.157","96.106","573.474","570.571","0"
"GENERATED VIA SPACETRACK.ORG API","18 SPCS","56792","STARLINK-6046","PAYLOAD","U","23078AB","2023-10-31 04:50:08","415456","14.98329411","0.0002907","70","354.2033","264.1859","95.8969","0","999","2404","-0.0001408","-0.00001773","0","4061910","0 STARLINK-6046","1 56792U 23078AB  23304.20148629 -.00001773  00000-0 -14080-3 0  9999","2 56792  70.0000 354.2033 0002907 264.1859  95.8969 14.98329411 24049","2023-078AB","56792","6950.195","96.107","574.080","570.039","0"
"GENERATED VIA SPACETRACK.ORG API","18 SPCS","55953","STARLINK-5889","PAYLOAD","U","23037AR","2023-10-31 07:42:54","786816","14.98437951","0.0003139","70","273.9371","269.381","90.6989","0","999","3593","0.0012125","0.00014445","0","4062973","0 STARLINK-5889","1 55953U 23037AR  23304.32146744  .00014445  00000-0  12125-2 0  9996","2 55953  70.0000 273.9371 0003139 269.3810  90.6989 14.98437951 35935","2023-037AR","55953","6949.859","96.100","573.906","569.543","0"
"GENERATED VIA SPACETRACK.ORG API","18 SPCS","55953","STARLINK-5889","PAYLOAD","U","23037AR","2023-10-31 07:42:54","786816","14.98437951","0.0003139","70","273.9371","269.381","90.6989","0","999","3559","0.0012125","0.00014445","0","4063043","0 STARLINK-5889","1 55953U 23037AR  23304.32146744  .00014445  00000-0  12125-2 0  9996","2 55953  70.0000 273.9371 0003139 269.3810  90.6989 14.98437951 35597","2023-037AR","55953","6949.859","96.100","573.906","569.543","0"
"GENERATED VIA SPACETRACK.ORG API","18 SPCS","49142","STARLINK-3042","PAYLOAD","U","21082N","2023-10-31 07:57:51","246432","14.98393781","0.0002361","70","263.7198","249.5932","110.4974","0","999","11809","-0.0011312","-0.00013586","0","4062908","0 STARLINK-3042","1 49142U 21082N   23304.33184313 -.00013586  00000-0 -11312-2 0  9996","2 49142  70.0000 263.7198 0002361 249.5932 110.4974 14.98393781118099","2021-082N","49142","6949.996","96.103","573.502","570.220","0"
"GENERATED VIA SPACETRACK.ORG API","18 SPCS","55665","STARLINK-5474","PAYLOAD","U","23021AP","2023-10-31 08:21:07","560288","14.99168971","0.000275","70","173.6876","277.5124","82.5723","0","999","4011","-0.00049784","-0.00006159","0","4062624","0 STARLINK-5474","1 55665U 23021AP  23304.34800417 -.00006159  00000-0 -49784-3 0  9992","2 55665  70.0000 173.6876 0002750 277.5124  82.5723 14.99168971 40114","2023-021AP","55665","6947.600","96.053","571.375","567.554","0"
"GENERATED VIA SPACETRACK.ORG API","18 SPCS","49169","STARLINK-3046","PAYLOAD","U","21082AR","2023-10-31 08:46:17","406336","14.98332644","0.0002889","70","283.6457","257.2257","102.8579","0","999","11760","-0.000086582","-0.00001126","0","4063043","0 STARLINK-3046","1 49169U 21082AR  23304.36547924 -.00001126  00000-0 -86582-4 0  9999","2 49169  70.0000 283.6457 0002889 257.2257 102.8579 14.98332644117601","2021-082AR","49169","6950.185","96.107","574.058","570.042","0"
"GENERATED VIA SPACETRACK.ORG API","18 SPCS","49169","STARLINK-3046","PAYLOAD","U","21082AR","2023-10-31 08:46:17","406336","14.98332644","0.0002889","70","283.6457","257.2257","102.8579","0","999","11881","-0.000086582","-0.00001126","0","4063329","0 STARLINK-3046","1 49169U 21082AR  23304.36547924 -.00001126  00000-0 -86582-4 0  9999","2 49169  70.0000 283.6457 0002889 257.2257 102.8579 14.98332644118815","2021-082AR","49169","6950.185","96.107","574.058","570.042","0"
"GENERATED VIA SPACETRACK.ORG API","18 SPCS","55658","STARLINK-5307","PAYLOAD","U","23021AG","2023-10-31 09:59:52","794528","14.98333294","0.0002895","70","193.3967","270.482","89.6007","0","999","3963","-0.00010119","-0.000013","0","4062623","0 STARLINK-5307","1 55658U 23021AG  23304.41658327 -.00001300  00000-0 -10119-3 0  9996","2 55658  70.0000 193.3967 0002895 270.4820  89.6007 14.98333294 39630","2023-021AG","55658","6950.183","96.107","574.060","570.036","0"
"GENERATED VIA SPACETRACK.ORG API","18 SPCS","55658","STARLINK-5307","PAYLOAD","U","23021AG","2023-10-31 09:59:52","794528","14.98333294","0.0002895","70","193.3967","270.482","89.6007","0","999","3993","-0.00010119","-0.000013","0","4063043","0 STARLINK-5307","1 55658U 23021AG  23304.41658327 -.00001300  00000-0 -10119-3 0  9996","2 55658  70.0000 193.3967 0002895 270.4820  89.6007 14.98333294 39933","2023-021AG","55658","6950.183","96.107","574.060","570.036","0"
"GENERATED VIA SPACETRACK.ORG API","18 SPCS","49149","STARLINK-3053","PAYLOAD","U","21082V","2023-10-31 10:16:44","870304","14.98331433","0.0002591","70","303.4728","268.7721","91.3141","0","999","11831","0.00018235","0.00002084","0","4063043","0 STARLINK-3053","1 49149U 21082V   23304.42829711  .00002084  00000-0  18235-3 0  9992","2 49149  70.0000 303.4728 0002591 268.7721  91.3141 14.98331433118315","2021-082V","49149","6950.188","96.107","573.854","570.253","0"
"GENERATED VIA SPACETRACK.ORG API","18 SPCS","55290","STARLINK-5266","PAYLOAD","U","23010X","2023-10-31 12:33:23","564160","14.9836722","0.0003198","70","33.281","264.4722","95.6073","0","999","4412","0.00028117","0.00003267","0","4063027","0 STARLINK-5266","1 55290U 23010X   23304.52318940  .00003267  00000-0  28117-3 0  9991","2 55290  70.0000  33.2810 0003198 264.4722  95.6073 14.98367220 44128","2023-010X","55290","6950.078","96.105","574.165","569.720","0"
"GENERATED VIA SPACETRACK.ORG API","18 SPCS","56811","STARLINK-6063","PAYLOAD","U","23078AW","2023-10-31 12:56:30","865632","15.69913323","0.0002675","70","342.3648","260.2564","99.8329","0","999","2436","-0.0000020087","-0.00000454","0","4062409","0 STARLINK-6063","1 56811U 23078AW  23304.53924613 -.00000454  00000-0 -20087-5 0  9993","2 56811  70.0000 342.3648 0002675 260.2564  99.8329 15.69913323 24362","2023-078AW","56811","6737.282","91.725","360.949","357.345","0"
